start=new Date('2023-06-18T00:00:00.000Z').valueOf();
sats=[{"REF_FRAME":"TEME","PERIAPSIS":"546.616","ELEMENT_SET_NO":"999","DECAY_DATE":null,"RCS_SIZE":"LARGE","SEMIMAJOR_AXIS":"6925.192","RA_OF_ASC_NODE":"322.6889","OBJECT_ID":"2021-027AS","LAUNCH_DATE":"2021-04-07","EPHEMERIS_TYPE":"0","MEAN_MOTION_DDOT":"0.0000000000000","GP_ID":"234169534","COUNTRY_CODE":"US","OBJECT_NAME":"STARLINK-2474","TIME_SYSTEM":"UTC","TLE_LINE1":"1 48132U 21027AS  23168.72312949  .00018398  00000-0  12491-2 0  9995","MEAN_MOTION_DOT":"0.00018398","TLE_LINE2":"2 48132  53.0541 322.6889 0000637  52.7638 307.3409 15.06451009122296","ARG_OF_PERICENTER":"52.7638","BSTAR":"0.00124910000000","NORAD_CAT_ID":"48132","OBJECT_TYPE":"PAYLOAD","PERIOD":"95.589","EPOCH":"2023-06-17T17:21:18.387936","CENTER_NAME":"EARTH","FILE":"3935891","INCLINATION":"53.0541","APOAPSIS":"547.498","CLASSIFICATION_TYPE":"U","MEAN_ANOMALY":"307.3409","REV_AT_EPOCH":"12229","MEAN_ELEMENT_THEORY":"SGP4","MEAN_MOTION":"15.06451009","SITE":"AFETR","ECCENTRICITY":"0.00006370"},{"MEAN_ELEMENT_THEORY":"SGP4","SITE":"AFETR","MEAN_MOTION":"15.06453259","ECCENTRICITY":"0.00009300","FILE":"3935891","INCLINATION":"53.0536","CENTER_NAME":"EARTH","EPOCH":"2023-06-17T17:15:59.816448","APOAPSIS":"547.694","MEAN_ANOMALY":"287.7318","CLASSIFICATION_TYPE":"U","REV_AT_EPOCH":"12230","PERIOD":"95.589","TLE_LINE2":"2 48133  53.0536 322.7063 0000930  72.3772 287.7318 15.06453259122300","MEAN_MOTION_DOT":"0.00018654","ARG_OF_PERICENTER":"72.3772","NORAD_CAT_ID":"48133","BSTAR":"0.00126610000000","OBJECT_TYPE":"PAYLOAD","OBJECT_NAME":"STARLINK-2475","TIME_SYSTEM":"UTC","TLE_LINE1":"1 48133U 21027AT  23168.71944232  .00018654  00000-0  12661-2 0  9995","LAUNCH_DATE":"2021-04-07","MEAN_MOTION_DDOT":"0.0000000000000","EPHEMERIS_TYPE":"0","GP_ID":"234169784","COUNTRY_CODE":"US","ELEMENT_SET_NO":"999","RCS_SIZE":"LARGE","DECAY_DATE":null,"RA_OF_ASC_NODE":"322.7063","OBJECT_ID":"2021-027AT","SEMIMAJOR_AXIS":"6925.185","REF_FRAME":"TEME","PERIAPSIS":"546.406"},{"ARG_OF_PERICENTER":"68.5809","MEAN_MOTION_DOT":"0.00022504","TLE_LINE2":"2 48134  53.0545 322.7664 0000934  68.5809 291.5280 15.06456551122297","OBJECT_TYPE":"PAYLOAD","BSTAR":"0.00152250000000","NORAD_CAT_ID":"48134","PERIOD":"95.589","APOAPSIS":"547.687","EPOCH":"2023-06-17T16:54:46.074816","CENTER_NAME":"EARTH","INCLINATION":"53.0545","FILE":"3935891","REV_AT_EPOCH":"12229","CLASSIFICATION_TYPE":"U","MEAN_ANOMALY":"291.5280","MEAN_MOTION":"15.06456551","SITE":"AFETR","MEAN_ELEMENT_THEORY":"SGP4","ECCENTRICITY":"0.00009340","REF_FRAME":"TEME","PERIAPSIS":"546.393","DECAY_DATE":null,"RCS_SIZE":"LARGE","ELEMENT_SET_NO":"999","SEMIMAJOR_AXIS":"6925.175","RA_OF_ASC_NODE":"322.7664","OBJECT_ID":"2021-027AU","EPHEMERIS_TYPE":"0","MEAN_MOTION_DDOT":"0.0000000000000","LAUNCH_DATE":"2021-04-07","COUNTRY_CODE":"US","GP_ID":"234170536","TIME_SYSTEM":"UTC","OBJECT_NAME":"STARLINK-2476","TLE_LINE1":"1 48134U 21027AU  23168.70469994  .00022504  00000-0  15225-2 0  9990"},{"COUNTRY_CODE":"US","GP_ID":"234171286","MEAN_MOTION_DDOT":"0.0000000000000","EPHEMERIS_TYPE":"0","LAUNCH_DATE":"2021-04-07","TLE_LINE1":"1 48135U 21027AV  23168.70610217  .00022000  00000-0  14892-2 0  9997","TIME_SYSTEM":"UTC","OBJECT_NAME":"STARLINK-2478","PERIAPSIS":"546.490","REF_FRAME":"TEME","OBJECT_ID":"2021-027AV","RA_OF_ASC_NODE":"327.9275","SEMIMAJOR_AXIS":"6925.196","RCS_SIZE":"LARGE","DECAY_DATE":null,"ELEMENT_SET_NO":"999","REV_AT_EPOCH":"12222","MEAN_ANOMALY":"289.3075","CLASSIFICATION_TYPE":"U","APOAPSIS":"547.632","FILE":"3935891","INCLINATION":"53.0545","EPOCH":"2023-06-17T16:56:47.227488","CENTER_NAME":"EARTH","ECCENTRICITY":"0.00008250","SITE":"AFETR","MEAN_MOTION":"15.06449779","MEAN_ELEMENT_THEORY":"SGP4","OBJECT_TYPE":"PAYLOAD","NORAD_CAT_ID":"48135","BSTAR":"0.00148920000000","ARG_OF_PERICENTER":"70.8003","TLE_LINE2":"2 48135  53.0545 327.9275 0000825  70.8003 289.3075 15.06449779122228","MEAN_MOTION_DOT":"0.00022000","PERIOD":"95.589"},{"LAUNCH_DATE":"2021-04-07","EPHEMERIS_TYPE":"0","MEAN_MOTION_DDOT":"0.0000000000000","GP_ID":"234170034","COUNTRY_CODE":"US","OBJECT_NAME":"STARLINK-2479","TIME_SYSTEM":"UTC","TLE_LINE1":"1 48136U 21027AW  23168.72955586  .00018272  00000-0  12408-2 0  9998","REF_FRAME":"TEME","PERIAPSIS":"546.499","ELEMENT_SET_NO":"999","DECAY_DATE":null,"RCS_SIZE":"LARGE","SEMIMAJOR_AXIS":"6925.203","OBJECT_ID":"2021-027AW","RA_OF_ASC_NODE":"322.6497","EPOCH":"2023-06-17T17:30:33.626304","CENTER_NAME":"EARTH","FILE":"3935891","INCLINATION":"53.0546","APOAPSIS":"547.638","MEAN_ANOMALY":"286.9750","CLASSIFICATION_TYPE":"U","REV_AT_EPOCH":"12230","MEAN_ELEMENT_THEORY":"SGP4","MEAN_MOTION":"15.06447357","SITE":"AFETR","ECCENTRICITY":"0.00008220","TLE_LINE2":"2 48136  53.0546 322.6497 0000822  73.1329 286.9750 15.06447357122304","MEAN_MOTION_DOT":"0.00018272","ARG_OF_PERICENTER":"73.1329","BSTAR":"0.00124080000000","NORAD_CAT_ID":"48136","OBJECT_TYPE":"PAYLOAD","PERIOD":"95.589"},{"PERIAPSIS":"546.492","REF_FRAME":"TEME","SEMIMAJOR_AXIS":"6925.255","OBJECT_ID":"2021-027AX","RA_OF_ASC_NODE":"303.1106","DECAY_DATE":null,"RCS_SIZE":"LARGE","ELEMENT_SET_NO":"999","COUNTRY_CODE":"US","GP_ID":"234170284","EPHEMERIS_TYPE":"0","MEAN_MOTION_DDOT":"0.0000000000000","LAUNCH_DATE":"2021-04-07","TLE_LINE1":"1 48137U 21027AX  23168.62177511  .00017297  00000-0  11763-2 0  9991","TIME_SYSTEM":"UTC","OBJECT_NAME":"STARLINK-2480","OBJECT_TYPE":"PAYLOAD","BSTAR":"0.00117630000000","NORAD_CAT_ID":"48137","ARG_OF_PERICENTER":"105.0605","TLE_LINE2":"2 48137  53.0539 303.1106 0000907 105.0605 255.0484 15.06430395122567","MEAN_MOTION_DOT":"0.00017297","PERIOD":"95.590","REV_AT_EPOCH":"12256","MEAN_ANOMALY":"255.0484","CLASSIFICATION_TYPE":"U","APOAPSIS":"547.749","EPOCH":"2023-06-17T14:55:21.369504","CENTER_NAME":"EARTH","FILE":"3935891","INCLINATION":"53.0539","ECCENTRICITY":"0.00009070","MEAN_MOTION":"15.06430395","SITE":"AFETR","MEAN_ELEMENT_THEORY":"SGP4"},{"TLE_LINE1":"1 48138U 21027AY  23168.71579435  .00011931  00000-0  81838-3 0  9993","OBJECT_NAME":"STARLINK-2481","TIME_SYSTEM":"UTC","GP_ID":"234171036","COUNTRY_CODE":"US","LAUNCH_DATE":"2021-04-07","MEAN_MOTION_DDOT":"0.0000000000000","EPHEMERIS_TYPE":"0","RA_OF_ASC_NODE":"322.7219","OBJECT_ID":"2021-027AY","SEMIMAJOR_AXIS":"6925.336","ELEMENT_SET_NO":"999","RCS_SIZE":"LARGE","DECAY_DATE":null,"PERIAPSIS":"546.452","REF_FRAME":"TEME","ECCENTRICITY":"0.00010810","MEAN_ELEMENT_THEORY":"SGP4","MEAN_MOTION":"15.06404076","SITE":"AFETR","MEAN_ANOMALY":"288.6764","CLASSIFICATION_TYPE":"U","REV_AT_EPOCH":"12230","FILE":"3935891","INCLINATION":"53.0539","EPOCH":"2023-06-17T17:10:44.631840","CENTER_NAME":"EARTH","APOAPSIS":"547.950","PERIOD":"95.592","NORAD_CAT_ID":"48138","BSTAR":"0.00081838000000","OBJECT_TYPE":"PAYLOAD","TLE_LINE2":"2 48138  53.0539 322.7219 0001081  71.4342 288.6764 15.06404076122300","MEAN_MOTION_DOT":"0.00011931","ARG_OF_PERICENTER":"71.4342"},{"COUNTRY_CODE":"US","GP_ID":"234170787","MEAN_MOTION_DDOT":"0.0000000000000","EPHEMERIS_TYPE":"0","LAUNCH_DATE":"2021-04-07","TLE_LINE1":"1 48139U 21027AZ  23168.64019302  .00023415  00000-0  15833-2 0  9999","TIME_SYSTEM":"UTC","OBJECT_NAME":"STARLINK-2482","PERIAPSIS":"546.410","REF_FRAME":"TEME","OBJECT_ID":"2021-027AZ","RA_OF_ASC_NODE":"303.0561","SEMIMAJOR_AXIS":"6925.180","RCS_SIZE":"LARGE","DECAY_DATE":null,"ELEMENT_SET_NO":"999","REV_AT_EPOCH":"12257","CLASSIFICATION_TYPE":"U","MEAN_ANOMALY":"295.8397","APOAPSIS":"547.680","FILE":"3935891","INCLINATION":"53.0545","EPOCH":"2023-06-17T15:21:52.676928","CENTER_NAME":"EARTH","ECCENTRICITY":"0.00009170","SITE":"AFETR","MEAN_MOTION":"15.06454920","MEAN_ELEMENT_THEORY":"SGP4","OBJECT_TYPE":"PAYLOAD","NORAD_CAT_ID":"48139","BSTAR":"0.00158330000000","ARG_OF_PERICENTER":"64.2687","MEAN_MOTION_DOT":"0.00023415","TLE_LINE2":"2 48139  53.0545 303.0561 0000917  64.2687 295.8397 15.06454920122573","PERIOD":"95.589"},{"PERIOD":"95.589","ARG_OF_PERICENTER":"80.6997","TLE_LINE2":"2 48140  53.0553 323.2017 0000982  80.6997 279.4103 15.06445471122284","MEAN_MOTION_DOT":"0.00020047","OBJECT_TYPE":"PAYLOAD","NORAD_CAT_ID":"48140","BSTAR":"0.00135920000000","SITE":"AFETR","MEAN_MOTION":"15.06445471","MEAN_ELEMENT_THEORY":"SGP4","ECCENTRICITY":"0.00009820","APOAPSIS":"547.754","INCLINATION":"53.0553","FILE":"3935891","EPOCH":"2023-06-17T14:35:24.821088","CENTER_NAME":"EARTH","REV_AT_EPOCH":"12228","CLASSIFICATION_TYPE":"U","MEAN_ANOMALY":"279.4103","RCS_SIZE":"LARGE","DECAY_DATE":null,"ELEMENT_SET_NO":"999","OBJECT_ID":"2021-027BA","RA_OF_ASC_NODE":"323.2017","SEMIMAJOR_AXIS":"6925.209","REF_FRAME":"TEME","PERIAPSIS":"546.394","TIME_SYSTEM":"UTC","OBJECT_NAME":"STARLINK-2483","TLE_LINE1":"1 48140U 21027BA  23168.60792617  .00020047  00000-0  13592-2 0  9992","MEAN_MOTION_DDOT":"0.0000000000000","EPHEMERIS_TYPE":"0","LAUNCH_DATE":"2021-04-07","COUNTRY_CODE":"US","GP_ID":"234169535"},{"OBJECT_NAME":"STARLINK-2484","TIME_SYSTEM":"UTC","TLE_LINE1":"1 48141U 21027BB  23168.69733093  .00022696  00000-0  15354-2 0  9995","LAUNCH_DATE":"2021-04-07","EPHEMERIS_TYPE":"0","MEAN_MOTION_DDOT":"0.0000000000000","GP_ID":"234169785","COUNTRY_CODE":"US","ELEMENT_SET_NO":"999","DECAY_DATE":null,"RCS_SIZE":"LARGE","SEMIMAJOR_AXIS":"6925.181","OBJECT_ID":"2021-027BB","RA_OF_ASC_NODE":"322.8005","REF_FRAME":"TEME","PERIAPSIS":"546.246","MEAN_ELEMENT_THEORY":"SGP4","SITE":"AFETR","MEAN_MOTION":"15.06454610","ECCENTRICITY":"0.00011560","EPOCH":"2023-06-17T16:44:09.392352","CENTER_NAME":"EARTH","FILE":"3935891","INCLINATION":"53.0541","APOAPSIS":"547.847","MEAN_ANOMALY":"285.1566","CLASSIFICATION_TYPE":"U","REV_AT_EPOCH":"12231","PERIOD":"95.589","MEAN_MOTION_DOT":"0.00022696","TLE_LINE2":"2 48141  53.0541 322.8005 0001156  74.9551 285.1566 15.06454610122316","ARG_OF_PERICENTER":"74.9551","BSTAR":"0.00153540000000","NORAD_CAT_ID":"48141","OBJECT_TYPE":"PAYLOAD"}];
